OBJECT_NAME,OBJECT_ID,EPOCH,MEAN_MOTION,ECCENTRICITY,INCLINATION,RA_OF_ASC_NODE,ARG_OF_PERICENTER,MEAN_ANOMALY,EPHEMERIS_TYPE,CLASSIFICATION_TYPE,NORAD_CAT_ID,ELEMENT_SET_NO,REV_AT_EPOCH,BSTAR,MEAN_MOTION_DOT,MEAN_MOTION_DDOT
IRIDIUM 103,2017-003B,2026-06-08T05:19:58.195776,14.34217524,0.00024554,86.3962,92.2035,80.9658,279.1816,0,U,41918,999,49194,5.0747243e-05,1.62e-06,0.0
IRIDIUM 109,2017-003C,2026-06-08T07:09:34.276032,14.34217966,0.00023059,86.3962,92.2311,83.99,276.1559,0,U,41919,999,49192,1.2615994000000001e-05,5.5e-07,0.0
IRIDIUM 102,2017-003D,2026-06-08T04:43:26.263200,14.34217742,0.00022674000000000001,86.3959,92.1973,86.465,273.6805,0,U,41920,999,49199,3.7908583000000005e-05,1.26e-06,0.0
IRIDIUM 105,2017-003E,2026-06-08T05:24:17.537472,14.34221075,0.00025428,86.3971,60.6168,86.9458,273.2029,0,U,41921,999,49385,6.579381500000001e-05,2.04e-06,0.0
IRIDIUM 104,2017-003F,2026-06-08T05:01:42.283488,14.34218061,0.00025079000000000003,86.3962,92.2343,83.5956,276.5526,0,U,41922,999,49198,1.7659792e-05,6.9e-07,0.0
IRIDIUM 114,2017-003G,2026-06-08T05:10:50.287584,14.34217899,0.00024078,86.3959,92.2149,83.5,276.647,0,U,41923,999,49196,1.3148551e-05,5.699999999999999e-07,0.0
IRIDIUM 108,2017-003H,2026-06-08T05:51:34.477056,14.34216948,0.00021301,86.3966,60.4993,88.40090000000001,271.7431,0,U,41924,999,49382,-2.5688947000000003e-05,-5.2e-07,0.0
IRIDIUM 112,2017-003J,2026-06-08T04:52:34.205088,14.34217554,0.00023788,86.3957,92.0627,85.4923,274.6544,0,U,41925,999,49198,6.9536392e-05,2.1499999999999997e-06,0.0
IRIDIUM 111,2017-003K,2026-06-08T04:34:18.267744,14.34217881,0.00022957,86.3958,92.1385,84.4817,275.664,0,U,41926,999,49196,8.601807e-06,4.4e-07,0.0
SBIRS GEO-4 (USA 273),2017-004A,2026-06-08T06:38:16.511136,1.00272029,0.00022017,2.2253,43.0212,30.136,303.9866,0,U,41937,999,3450,0.0,1.39e-06,0.0
HISPASAT 36W-1,2017-006A,2026-06-07T09:49:59.967840,1.00277541,0.00013455,0.025,204.5529,243.5935,279.1752,0,U,41942,999,3414,0.0,-2.29e-06,0.0
TELKOM 3S,2017-007A,2026-06-08T07:05:57.211584,1.00270368,0.00023025,0.019,306.213,134.1803,40.7976,0,U,41944,999,3405,0.0,-3.4700000000000002e-06,0.0
INTELSAT 32E (IS-32E),2017-007B,2026-06-07T18:21:19.617696,1.00270608,6.784e-05,0.001,354.1974,347.1216,147.0062,0,U,41945,999,3413,0.0,-2.54e-06,0.0
CARTOSAT-2D,2017-008A,2026-06-08T07:59:21.056640,15.19267473,0.0003516,97.4108,218.8036,273.3166,86.7667,0,U,41948,999,51623,0.00020814631999999998,4.322e-05,0.0
SENTINEL-2B,2017-013A,2026-06-08T07:49:57.664704,14.30814784,0.00012161,98.5686,234.2257,85.8177,274.3145,0,U,42063,999,48337,7.205724600000001e-05,1.4499999999999999e-06,0.0
ECHOSTAR 23,2017-014A,2026-06-07T11:11:39.468192,1.00268374,0.00017428,0.0179,343.9352,97.2622,232.6885,0,U,42070,999,3382,0.0,0.0,0.0
WGS F9 (USA 275),2017-016A,2026-06-07T16:47:30.726816,1.0027065,3.489e-05,0.0095,280.2284,165.7272,50.0314,0,U,42075,999,3380,0.0,-8.199999999999999e-07,0.0
SES-10,2017-017A,2026-06-07T19:57:12.671424,1.0027162,0.0002893,0.0206,32.3181,54.8206,41.5067,0,U,42432,999,3366,0.0,-2.58e-06,0.0
CHINASAT 16 (SJ-13),2017-018A,2026-06-07T16:37:00.812064,1.00274073,0.00039635,0.0974,91.4359,138.2362,26.2183,0,U,42662,999,3365,0.0,-3.37e-06,0.0
KOREASAT 7,2017-023A,2026-06-08T00:14:40.964640,1.00272045,5.3410000000000005e-05,0.0189,346.8803,67.7211,321.3628,0,U,42691,999,3327,0.0,-3.4700000000000002e-06,0.0
SGDC,2017-023B,2026-06-07T11:55:56.282016,1.00272417,0.00028458,0.024900000000000002,58.8988,27.2607,273.8812,0,U,42692,999,3330,0.0,-2.35e-06,0.0
GSAT-9,2017-024A,2026-06-08T01:51:43.025184,1.0027294,0.00025385,0.012,301.6235,130.861,309.2607,0,U,42695,999,3320,0.0,-2.71e-06,0.0
INMARSAT 5-F4,2017-025A,2026-06-07T11:59:05.748576,1.00273861,1.1490000000000002e-05,0.0177,354.1064,199.5792,298.4718,0,U,42698,999,3318,0.0,8.9e-07,0.0
SES-15,2017-026A,2026-06-08T06:38:24.204192,1.00269869,5.4040000000000004e-05,0.019700000000000002,331.2013,87.9187,167.9996,0,U,42709,999,734,0.0,7.5e-07,0.0
COSMOS 2518,2017-027A,2026-06-05T03:28:41.222784,2.0085524,0.69789841,63.0507,249.8401,273.6626,15.9408,0,U,42719,999,6616,0.0,-1.0500000000000001e-05,0.0
QZS-2 (MICHIBIKI-2),2017-028A,2026-06-07T13:48:31.783104,1.00286521,0.07605855,39.4419,243.2963,269.1564,91.9396,0,U,42738,999,753,0.0,-1.51e-06,0.0
VIASAT-2,2017-029A,2026-06-07T07:57:40.473216,1.00271397,3.0220000000000002e-05,0.0179,291.0744,148.4673,225.7314,0,U,42740,999,3310,0.0,-2.5099999999999997e-06,0.0
EUTELSAT 172B,2017-029B,2026-06-08T07:07:21.902592,1.00271616,5.379999999999999e-06,0.0287,118.1319,56.2545,1.147,0,U,42741,999,3365,0.0,1e-07,0.0
GSAT-19,2017-031A,2026-06-08T05:03:15.250752,1.00271285,0.00069492,0.1091,90.8073,350.159,299.3108,0,U,42747,999,3305,0.0,1.41e-06,0.0
ECHOSTAR 21,2017-032A,2026-06-08T06:35:09.309984,1.0027101,0.00023023,1.7718,355.093,86.8561,283.7737,0,U,42749,999,3301,0.0,7.9e-07,0.0
