IRIDIUM 103             
1 41918U 17003B   26159.22220134  .00000162  00000+0  50747-4 0  9998
2 41918  86.3962  92.2035 0002455  80.9658 279.1816 14.34217524491946
IRIDIUM 109             
1 41919U 17003C   26159.29831338  .00000055  00000+0  12616-4 0  9994
2 41919  86.3962  92.2311 0002305  83.9900 276.1559 14.34217966491920
IRIDIUM 102             
1 41920U 17003D   26159.19683175  .00000126  00000+0  37909-4 0  9990
2 41920  86.3959  92.1973 0002267  86.4650 273.6805 14.34217742491993
IRIDIUM 105             
1 41921U 17003E   26159.22520298  .00000204  00000+0  65794-4 0  9991
2 41921  86.3971  60.6168 0002542  86.9458 273.2029 14.34221075493856
IRIDIUM 104             
1 41922U 17003F   26159.20951717  .00000069  00000+0  17660-4 0  9992
2 41922  86.3962  92.2343 0002507  83.5956 276.5526 14.34218061491981
IRIDIUM 114             
1 41923U 17003G   26159.21585981  .00000057  00000+0  13149-4 0  9995
2 41923  86.3959  92.2149 0002407  83.5000 276.6470 14.34217899491966
IRIDIUM 108             
1 41924U 17003H   26159.24414904 -.00000052  00000+0 -25689-4 0  9994
2 41924  86.3966  60.4993 0002130  88.4009 271.7431 14.34216948493829
IRIDIUM 112             
1 41925U 17003J   26159.20317367  .00000215  00000+0  69536-4 0  9994
2 41925  86.3957  92.0627 0002378  85.4923 274.6544 14.34217554491987
IRIDIUM 111             
1 41926U 17003K   26159.19048921  .00000044  00000+0  86018-5 0  9995
2 41926  86.3958  92.1385 0002295  84.4817 275.6640 14.34217881491969
SBIRS GEO-4 (USA 273)   
1 41937U 17004A   26159.27657999  .00000139  00000+0  00000+0 0  9994
2 41937   2.2253  43.0212 0002201  30.1360 303.9866  1.00272029 34500
HISPASAT 36W-1          
1 41942U 17006A   26158.40972185 -.00000229  00000+0  00000+0 0  9994
2 41942   0.0250 204.5529 0001345 243.5935 279.1752  1.00277541 34142
TELKOM 3S               
1 41944U 17007A   26159.29580106 -.00000347  00000+0  00000+0 0  9994
2 41944   0.0190 306.2130 0002302 134.1803  40.7976  1.00270368 34058
INTELSAT 32E (IS-32E)   
1 41945U 17007B   26158.76481039 -.00000254  00000+0  00000+0 0  9998
2 41945   0.0010 354.1974 0000678 347.1216 147.0062  1.00270608 34139
CARTOSAT-2D             
1 41948U 17008A   26159.33288260  .00004322  00000+0  20815-3 0  9996
2 41948  97.4108 218.8036 0003516 273.3166  86.7667 15.19267473516230
SENTINEL-2B             
1 42063U 17013A   26159.32636186  .00000145  00000+0  72057-4 0  9999
2 42063  98.5686 234.2257 0001216  85.8177 274.3145 14.30814784483371
ECHOSTAR 23             
1 42070U 17014A   26158.46642903  .00000000  00000+0  00000+0 0  9990
2 42070   0.0179 343.9352 0001742  97.2622 232.6885  1.00268374 33824
WGS F9 (USA 275)        
1 42075U 17016A   26158.69966119 -.00000082  00000+0  00000+0 0  9991
2 42075   0.0095 280.2284 0000348 165.7272  50.0314  1.00270650 33803
SES-10                  
1 42432U 17017A   26158.83139666 -.00000258  00000+0  00000+0 0  9999
2 42432   0.0206  32.3181 0002893  54.8206  41.5067  1.00271620 33660
CHINASAT 16 (SJ-13)     
1 42662U 17018A   26158.69237051 -.00000337  00000+0  00000+0 0  9994
2 42662   0.0974  91.4359 0003963 138.2362  26.2183  1.00274073 33652
KOREASAT 7              
1 42691U 17023A   26159.01019635 -.00000347  00000+0  00000+0 0  9996
2 42691   0.0189 346.8803 0000534  67.7211 321.3628  1.00272045 33271
SGDC                    
1 42692U 17023B   26158.49717919 -.00000235  00000+0  00000+0 0  9994
2 42692   0.0249  58.8988 0002845  27.2607 273.8812  1.00272417 33303
GSAT-9                  
1 42695U 17024A   26159.07758131 -.00000271  00000+0  00000+0 0  9994
2 42695   0.0120 301.6235 0002538 130.8610 309.2607  1.00272940 33208
INMARSAT 5-F4           
1 42698U 17025A   26158.49937209  .00000089  00000+0  00000+0 0  9994
2 42698   0.0177 354.1064 0000114 199.5792 298.4718  1.00273861 33189
SES-15                  
1 42709U 17026A   26159.27666903  .00000075  00000+0  00000+0 0  9990
2 42709   0.0197 331.2013 0000540  87.9187 167.9996  1.00269869  7345
COSMOS 2518             
1 42719U 17027A   26156.14492156 -.00001050  00000+0  00000+0 0  9997
2 42719  63.0507 249.8401 6978984 273.6626  15.9408  2.00855240 66169
QZS-2 (MICHIBIKI-2)     
1 42738U 17028A   26158.57536786 -.00000151  00000+0  00000+0 0  9997
2 42738  39.4419 243.2963 0760585 269.1564  91.9396  1.00286521  7536
VIASAT-2                
1 42740U 17029A   26158.33171844 -.00000251  00000+0  00000+0 0  9996
2 42740   0.0179 291.0744 0000302 148.4673 225.7314  1.00271397 33102
EUTELSAT 172B           
1 42741U 17029B   26159.29678128  .00000010  00000+0  00000+0 0  9992
2 42741   0.0287 118.1319 0000053  56.2545   1.1470  1.00271616 33650
GSAT-19                 
1 42747U 17031A   26159.21059318  .00000141  00000+0  00000+0 0  9992
2 42747   0.1091  90.8073 0006949 350.1590 299.3108  1.00271285 33054
ECHOSTAR 21             
1 42749U 17032A   26159.27441331  .00000079  00000+0  00000+0 0  9991
2 42749   1.7718 355.0930 0002302  86.8561 283.7737  1.00271010 33014
